[{"OBJECT_NAME":"YAOGAN-24","OBJECT_ID":"2014-072A","EPOCH":"2026-03-09T23:33:58.619808","MEAN_MOTION":14.76230497,"ECCENTRICITY":0.00123495,"INCLINATION":98.131,"RA_OF_ASC_NODE":205.5775,"ARG_OF_PERICENTER":217.5868,"MEAN_ANOMALY":142.4479,"EPHEMERIS_TYPE":0,"CLASSIFICATION_TYPE":"U","NORAD_CAT_ID":40310,"ELEMENT_SET_NO":999,"REV_AT_EPOCH":60908,"BSTAR":0.00015342398,"MEAN_MOTION_DOT":1.01e-5,"MEAN_MOTION_DDOT":0},{"OBJECT_NAME":"PEGASUS DEB","OBJECT_ID":"1994-029AFG","EPOCH":"2026-03-08T04:30:15.278976","MEAN_MOTION":13.94053374,"ECCENTRICITY":0.04343673,"INCLINATION":82.2874,"RA_OF_ASC_NODE":237.0889,"ARG_OF_PERICENTER":97.0097,"MEAN_ANOMALY":268.0663,"EPHEMERIS_TYPE":0,"CLASSIFICATION_TYPE":"U","NORAD_CAT_ID":39321,"ELEMENT_SET_NO":999,"REV_AT_EPOCH":64017,"BSTAR":0.00075688702,"MEAN_MOTION_DOT":2.229e-5,"MEAN_MOTION_DDOT":0}]
